[{"OBJECT_NAME":"GLOBALSTAR M096","OBJECT_ID":"2013-005D","EPOCH":"2026-03-09T22:21:33.576768","MEAN_MOTION":12.62263678,"ECCENTRICITY":7.446e-5,"INCLINATION":52.0067,"RA_OF_ASC_NODE":141.7261,"ARG_OF_PERICENTER":114.904,"MEAN_ANOMALY":245.1904,"EPHEMERIS_TYPE":0,"CLASSIFICATION_TYPE":"U","NORAD_CAT_ID":39075,"ELEMENT_SET_NO":999,"REV_AT_EPOCH":60485,"BSTAR":0.00011478221,"MEAN_MOTION_DOT":-8.3e-7,"MEAN_MOTION_DDOT":0},{"OBJECT_NAME":"COSMOS 2251 DEB","OBJECT_ID":"1993-036ACR","EPOCH":"2026-03-09T23:28:57.334368","MEAN_MOTION":13.44300926,"ECCENTRICITY":0.04352568,"INCLINATION":73.9619,"RA_OF_ASC_NODE":268.8908,"ARG_OF_PERICENTER":235.7733,"MEAN_ANOMALY":197.4227,"EPHEMERIS_TYPE":0,"CLASSIFICATION_TYPE":"U","NORAD_CAT_ID":34878,"ELEMENT_SET_NO":999,"REV_AT_EPOCH":82445,"BSTAR":0.00043519449,"MEAN_MOTION_DOT":4.24e-6,"MEAN_MOTION_DDOT":0}]
